GAOFEN-11 01            
1 43585U 18063A   26169.97482596  .00009949  00000+0  14807-3 0  9990
2 43585  97.1290 236.8487 0002776 349.7870  10.3328 15.55328241440622
ICESAT-2                
1 43613U 18070A   26169.92296301  .00007184  00000+0  26049-3 0  9992
2 43613  92.0084 291.4479 0006089 103.1837 257.0092 15.28307759432724
HYSIS                   
1 43719U 18096A   26169.97090918  .00000276  00000+0  44799-4 0  9996
2 43719  97.9838 236.7053 0001786  97.5746 262.5668 14.78619081407681
KAZSTSAT                
1 43783U 18099AB  26169.83207582  .00001390  00000+0  11663-3 0  9993
2 43783  97.4270 201.6855 0008570  65.4622 294.7495 14.99870780411557
SAUDISAT 5A             
1 43831U 18102A   26169.99840306  .00004402  00000+0  16326-3 0  9994
2 43831  97.3064 231.5445 0011119 123.5315 236.6989 15.28063340415956
SAUDISAT 5B             
1 43833U 18102C   26169.95146971  .00004211  00000+0  15507-3 0  9997
2 43833  97.3173 234.5715 0011780 125.8424 234.3912 15.28318896416065
GAOFEN-10R              
1 44622U 19066A   26169.97546738  .00000913  00000+0  11891-3 0  9998
2 44622  98.0503 123.5678 0006766 122.7301 237.4565 14.83064124362644
CARTOSAT-3              
1 44804U 19081A   26169.93562285  .00001537  00000+0  75953-4 0  9991
2 44804  97.4299 231.7751 0013379 142.4558 217.7613 15.19287625363735
GAOFEN-12 01            
1 44819U 19082A   26169.97217757  .00000288  00000+0  44277-4 0  9990
2 44819  97.8100 176.3045 0002220  68.4981 291.6468 14.80459782354355
CSG-1                   
1 44873U 19092A   26169.94164462  .00000295  00000+0  43588-4 0  9994
2 44873  97.8888 353.5187 0001470  89.2640 270.8741 14.82154423351731
NEMO-HD                 
1 46277U 20061F   26169.94370985  .00008613  00000+0  18688-3 0  9995
2 46277  97.1915 231.8790 0002186  79.6746 280.4750 15.44623443322252
SENTINEL-6A             
1 46984U 20086A   26169.64700222 -.00000063  00000+0 -90625-5 0  9991
2 46984  66.0396 132.0202 0007927 270.2204  89.7903 12.80929949260518
CAS500-1                
1 47932U 21022A   26169.97197789  .00004789  00000+0  22450-3 0  9996
2 47932  97.3895  65.1893 0003326 291.5022  68.5858 15.20149023291037
GAOFEN-12 02            
1 48079U 21026A   26169.98342725  .00000255  00000+0  40358-4 0  9998
2 48079  97.9922 168.1567 0003811 214.4600 145.6365 14.80297253282027
PLEIADES NEO 3          
1 48268U 21034A   26169.94145794  .00000247  00000+0  37998-4 0  9997
2 48268  97.8932 244.6829 0001356  88.8528 271.2841 14.81674648277917
PLEIADES NEO 4          
1 49070U 21073E   26169.97520718  .00001179  00000+0  15639-3 0  9990
2 49070  97.8935 244.7123 0001382  88.0187 272.1185 14.81680679261636
LANDSAT 9               
1 49260U 21088A   26169.91327656  .00000255  00000+0  66718-4 0  9996
2 49260  98.2281 240.0698 0001315  85.9253 274.2096 14.57098125251251
CSG-2                   
1 51444U 22008A   26169.97537797 -.00000024  00000+0  35525-5 0  9999
2 51444  97.8881 353.5467 0001455  85.0164 275.1215 14.82156388236856
GAOFEN-12 03            
1 52912U 22069A   26169.94605536  .00000572  00000+0  82231-4 0  9993
2 52912  97.8277  57.7722 0002120 100.7220 259.4231 14.80037107214877
SWOT                    
1 54754U 22173A   26169.91751946  .00000028  00000+0  21024-4 0  9998
2 54754  77.6106  32.9744 0000264  91.7801 268.3380 14.00169800179399
GAOFEN-12 04            
1 57654U 23123A   26169.96250079  .00000750  00000+0  10543-3 0  9997
2 57654  97.9121  87.9549 0001772  82.4759 277.6654 14.80231510152899
PARS 1                  
1 59065U 24039Q   26169.99766101  .00009035  00000+0  18826-3 0  9990
2 59065  97.4826 150.9744 0011531 106.3465 253.9053 15.45755499128922
RESURS-P 4              
1 59371U 24061A   26169.96124042  .00002441  00000+0  81125-4 0  9991
2 59371  97.2753 117.8291 0002307 124.8270 235.3189 15.32139479124030
LEGION 1                
1 59625U 24081A   26169.94237328  .00002781  00000+0  14538-3 0  9995
2 59625  97.5016 247.7807 0009343  11.8596 348.2855 15.16676748117804
LEGION 2                
1 59626U 24081B   26169.90640054  .00002806  00000+0  14670-3 0  9991
2 59626  97.5017 247.8425 0010595 337.4580  22.6187 15.16654711117801
ALOS-4 (DAICHI-4)       
1 60182U 24123A   26169.98460874  .00001092  00000+0  15313-3 0  9996
2 60182  97.9247 267.1333 0001628  97.1033 263.0364 14.79470921106142
LEGION 3                
1 60452U 24146A   26169.91004064  .00003135  00000+0  17367-3 0  9990
2 60452  45.0026  21.3152 0007847 180.1546 179.9331 15.16047781102287
LEGION 4                
1 60453U 24146B   26169.91314515  .00003643  00000+0  19942-3 0  9991
2 60453  45.0013 113.2085 0013627 317.5896  42.3929 15.16042965101135
SENTINEL-2C             
1 60989U 24157A   26169.78093679  .00000081  00000+0  47533-4 0  9998
2 60989  98.5692 244.5404 0001000  82.7227 277.4070 14.30818212 93217
IONOSFERA-M 1           
1 61735U 24199A   26169.95193994  .00000028  00000+0  32302-4 0  9993
2 61735  98.7171  43.1055 0001983 107.7992 252.3402 14.22754597127959
