OBJECT_NAME,OBJECT_ID,EPOCH,MEAN_MOTION,ECCENTRICITY,INCLINATION,RA_OF_ASC_NODE,ARG_OF_PERICENTER,MEAN_ANOMALY,EPHEMERIS_TYPE,CLASSIFICATION_TYPE,NORAD_CAT_ID,ELEMENT_SET_NO,REV_AT_EPOCH,BSTAR,MEAN_MOTION_DOT,MEAN_MOTION_DDOT
GAOFEN-11 01,2018-063A,2026-06-18T23:23:44.962944,15.55328241,.00027761,97.1290,236.8487,349.7870,10.3328,0,U,43585,999,44062,.1480654E-3,.9949E-4,0
ICESAT-2,2018-070A,2026-06-18T22:09:04.004064,15.28307759,.00060893,92.0084,291.4479,103.1837,257.0092,0,U,43613,999,43272,.26049338E-3,.7184E-4,0
HYSIS,2018-096A,2026-06-18T23:18:06.553152,14.78619081,.00017867,97.9838,236.7053,97.5746,262.5668,0,U,43719,999,40768,.44799242E-4,.276E-5,0
KAZSTSAT,2018-099AB,2026-06-18T19:58:11.350848,14.99870780,.00085705,97.4270,201.6855,65.4622,294.7495,0,U,43783,999,41155,.11663346E-3,.139E-4,0
SAUDISAT 5A,2018-102A,2026-06-18T23:57:42.024384,15.28063340,.00111192,97.3064,231.5445,123.5315,236.6989,0,U,43831,999,41595,.16325827E-3,.4402E-4,0
SAUDISAT 5B,2018-102C,2026-06-18T22:50:06.982944,15.28318896,.00117804,97.3173,234.5715,125.8424,234.3912,0,U,43833,999,41606,.15507061E-3,.4211E-4,0
GAOFEN-10R,2019-066A,2026-06-18T23:24:40.381632,14.83064124,.00067662,98.0503,123.5678,122.7301,237.4565,0,U,44622,999,36264,.11891223E-3,.913E-5,0
CARTOSAT-3,2019-081A,2026-06-18T22:27:17.814240,15.19287625,.00133793,97.4299,231.7751,142.4558,217.7613,0,U,44804,999,36373,.75953291E-4,.1537E-4,0
GAOFEN-12 01,2019-082A,2026-06-18T23:19:56.142048,14.80459782,.000222,97.8100,176.3045,68.4981,291.6468,0,U,44819,999,35435,.44277209E-4,.288E-5,0
CSG-1,2019-092A,2026-06-18T22:35:58.095168,14.82154423,.00014707,97.8888,353.5187,89.2640,270.8741,0,U,44873,999,35173,.43588422E-4,.295E-5,0
NEMO-HD,2020-061F,2026-06-18T22:38:56.531040,15.44623443,.00021861,97.1915,231.8790,79.6746,280.4750,0,U,46277,999,32225,.18688344E-3,.8613E-4,0
SENTINEL-6A,2020-086A,2026-06-18T15:31:40.991808,12.80929949,.00079274,66.0396,132.0202,270.2204,89.7903,0,U,46984,999,26051,-.9062524E-5,-.63E-6,0
CAS500-1,2021-022A,2026-06-18T23:19:38.889696,15.20149023,.00033263,97.3895,65.1893,291.5022,68.5858,0,U,47932,999,29103,.22450058E-3,.4789E-4,0
GAOFEN-12 02,2021-026A,2026-06-18T23:36:08.114400,14.80297253,.00038113,97.9922,168.1567,214.4600,145.6365,0,U,48079,999,28202,.40357894E-4,.255E-5,0
PLEIADES NEO 3,2021-034A,2026-06-18T22:35:41.966016,14.81674648,.00013569,97.8932,244.6829,88.8528,271.2841,0,U,48268,999,27791,.37997624E-4,.247E-5,0
PLEIADES NEO 4,2021-073E,2026-06-18T23:24:17.900352,14.81680679,.00013821,97.8935,244.7123,88.0187,272.1185,0,U,49070,999,26163,.15639167E-3,.1179E-4,0
LANDSAT 9,2021-088A,2026-06-18T21:55:07.094784,14.57098125,.00013154,98.2281,240.0698,85.9253,274.2096,0,U,49260,999,25125,.66717519E-4,.255E-5,0
CSG-2,2022-008A,2026-06-18T23:24:32.656608,14.82156388,.00014551,97.8881,353.5467,85.0164,275.1215,0,U,51444,999,23685,.3552479E-5,-.24E-6,0
GAOFEN-12 03,2022-069A,2026-06-18T22:42:19.183104,14.80037107,.00021209,97.8277,57.7722,100.7220,259.4231,0,U,52912,999,21487,.82230879E-4,.572E-5,0
SWOT,2022-173A,2026-06-18T22:01:13.681344,14.00169800,.00002641,77.6106,32.9744,91.7801,268.3380,0,U,54754,999,17939,.2102379E-4,.28E-6,0
GAOFEN-12 04,2023-123A,2026-06-18T23:06:00.068256,14.80231510,.00017727,97.9121,87.9549,82.4759,277.6654,0,U,57654,999,15289,.1054315E-3,.75E-5,0
PARS 1,2024-039Q,2026-06-18T23:56:37.911264,15.45755499,.00115316,97.4826,150.9744,106.3465,253.9053,0,U,59065,999,12892,.18826159E-3,.9035E-4,0
RESURS-P 4,2024-061A,2026-06-18T23:04:11.172288,15.32139479,.00023074,97.2753,117.8291,124.8270,235.3189,0,U,59371,999,12403,.81125345E-4,.2441E-4,0
LEGION 1,2024-081A,2026-06-18T22:37:01.051392,15.16676748,.00093438,97.5016,247.7807,11.8596,348.2855,0,U,59625,999,11780,.14538421E-3,.2781E-4,0
LEGION 2,2024-081B,2026-06-18T21:45:13.006656,15.16654711,.00105956,97.5017,247.8425,337.4580,22.6187,0,U,59626,999,11780,.14670325E-3,.2806E-4,0
ALOS-4 (DAICHI-4),2024-123A,2026-06-18T23:37:50.195136,14.79470921,.0001628,97.9247,267.1333,97.1033,263.0364,0,U,60182,999,10614,.15312578E-3,.1092E-4,0
LEGION 3,2024-146A,2026-06-18T21:50:27.511296,15.16047781,.00078471,45.0026,21.3152,180.1546,179.9331,0,U,60452,999,10228,.17366694E-3,.3135E-4,0
LEGION 4,2024-146B,2026-06-18T21:54:55.740960,15.16042965,.00136276,45.0013,113.2085,317.5896,42.3929,0,U,60453,999,10113,.19942212E-3,.3643E-4,0
SENTINEL-2C,2024-157A,2026-06-18T18:44:32.938656,14.30818212,.00010007,98.5692,244.5404,82.7227,277.4070,0,U,60989,999,9321,.47532841E-4,.81E-6,0
IONOSFERA-M 1,2024-199A,2026-06-18T22:50:47.610816,14.22754597,.00019835,98.7171,43.1055,107.7992,252.3402,0,U,61735,999,12795,.32301508E-4,.28E-6,0
